[
  {
    "OBJECT_NAME": "STARLINK-3696",
    "OBJECT_ID": "22025K",
    "EPOCH": "2025-11-11T02:24:42.355872",
    "MEAN_MOTION": 15.06440271,
    "ECCENTRICITY": 0.0001243,
    "INCLINATION": 53.0549,
    "RA_OF_ASC_NODE": 208.208,
    "ARG_OF_PERICENTER": 92.094,
    "MEAN_ANOMALY": 268.0191,
    "EPHEMERIS_TYPE": 0,
    "CLASSIFICATION_TYPE": "U",
    "NORAD_CAT_ID": 51965,
    "ELEMENT_SET_NO": 999,
    "REV_AT_EPOCH": 20297,
    "BSTAR": 0.00027897,
    "MEAN_MOTION_DOT": 3.881e-05,
    "MEAN_MOTION_DDOT": 0.0,
    "TLE_LINE1": "1 51965U 22025K   25315.10049023  .00003881  00000+0  27897-3 0  9997",
    "TLE_LINE2": "2 51965  53.0549 208.2080 0001243  92.0940 268.0191 15.06440271202975",
    "COMMENT": "Grouped by shell and plane from TLE"
  },
  {
    "OBJECT_NAME": "STARLINK-3699",
    "OBJECT_ID": "22025L",
    "EPOCH": "2025-11-11T01:45:36.182880",
    "MEAN_MOTION": 15.06398983,
    "ECCENTRICITY": 0.0001024,
    "INCLINATION": 53.0569,
    "RA_OF_ASC_NODE": 203.3172,
    "ARG_OF_PERICENTER": 88.8061,
    "MEAN_ANOMALY": 271.3045,
    "EPHEMERIS_TYPE": 0,
    "CLASSIFICATION_TYPE": "U",
    "NORAD_CAT_ID": 51966,
    "ELEMENT_SET_NO": 999,
    "REV_AT_EPOCH": 20304,
    "BSTAR": 0.00014026,
    "MEAN_MOTION_DOT": 1.808e-05,
    "MEAN_MOTION_DDOT": 0.0,
    "TLE_LINE1": "1 51966U 22025L   25315.07333545  .00001808  00000+0  14026-3 0  9996",
    "TLE_LINE2": "2 51966  53.0569 203.3172 0001024  88.8061 271.3045 15.06398983203046",
    "COMMENT": "Grouped by shell and plane from TLE"
  },
  {
    "OBJECT_NAME": "STARLINK-3677",
    "OBJECT_ID": "22025Q",
    "EPOCH": "2025-11-11T03:15:50.437152",
    "MEAN_MOTION": 15.06407366,
    "ECCENTRICITY": 0.0001926,
    "INCLINATION": 53.0548,
    "RA_OF_ASC_NODE": 203.1116,
    "ARG_OF_PERICENTER": 87.1585,
    "MEAN_ANOMALY": 272.9624,
    "EPHEMERIS_TYPE": 0,
    "CLASSIFICATION_TYPE": "U",
    "NORAD_CAT_ID": 51970,
    "ELEMENT_SET_NO": 999,
    "REV_AT_EPOCH": 20305,
    "BSTAR": 0.00027034000000000004,
    "MEAN_MOTION_DOT": 3.748e-05,
    "MEAN_MOTION_DDOT": 0.0,
    "TLE_LINE1": "1 51970U 22025Q   25315.13600043  .00003748  00000+0  27034-3 0  9996",
    "TLE_LINE2": "2 51970  53.0548 203.1116 0001926  87.1585 272.9624 15.06407366203055",
    "COMMENT": "Grouped by shell and plane from TLE"
  },
  {
    "OBJECT_NAME": "STARLINK-3671",
    "OBJECT_ID": "22025S",
    "EPOCH": "2025-11-10T23:48:50.006880",
    "MEAN_MOTION": 15.06402695,
    "ECCENTRICITY": 0.0001596,
    "INCLINATION": 53.0543,
    "RA_OF_ASC_NODE": 203.738,
    "ARG_OF_PERICENTER": 88.6393,
    "MEAN_ANOMALY": 271.4779,
    "EPHEMERIS_TYPE": 0,
    "CLASSIFICATION_TYPE": "U",
    "NORAD_CAT_ID": 51972,
    "ELEMENT_SET_NO": 999,
    "REV_AT_EPOCH": 20303,
    "BSTAR": 0.00016907,
    "MEAN_MOTION_DOT": 2.238e-05,
    "MEAN_MOTION_DDOT": 0.0,
    "TLE_LINE1": "1 51972U 22025S   25314.99224545  .00002238  00000+0  16907-3 0  9990",
    "TLE_LINE2": "2 51972  53.0543 203.7380 0001596  88.6393 271.4779 15.06402695203030",
    "COMMENT": "Grouped by shell and plane from TLE"
  },
  {
    "OBJECT_NAME": "STARLINK-3679",
    "OBJECT_ID": "22025T",
    "EPOCH": "2025-11-11T03:10:30.557568",
    "MEAN_MOTION": 15.06427787,
    "ECCENTRICITY": 0.000137,
    "INCLINATION": 53.0523,
    "RA_OF_ASC_NODE": 203.0527,
    "ARG_OF_PERICENTER": 88.7262,
    "MEAN_ANOMALY": 271.3884,
    "EPHEMERIS_TYPE": 0,
    "CLASSIFICATION_TYPE": "U",
    "NORAD_CAT_ID": 51973,
    "ELEMENT_SET_NO": 999,
    "REV_AT_EPOCH": 20305,
    "BSTAR": 0.0008664500000000001,
    "MEAN_MOTION_DOT": 0.00012657,
    "MEAN_MOTION_DDOT": 0.0,
    "TLE_LINE1": "1 51973U 22025T   25315.13229812  .00012657  00000+0  86645-3 0  9992",
    "TLE_LINE2": "2 51973  53.0523 203.0527 0001370  88.7262 271.3884 15.06427787203058",
    "COMMENT": "Grouped by shell and plane from TLE"
  },
  {
    "OBJECT_NAME": "STARLINK-3672",
    "OBJECT_ID": "22025U",
    "EPOCH": "2025-11-10T09:23:41.107200",
    "MEAN_MOTION": 15.06391356,
    "ECCENTRICITY": 0.0001502,
    "INCLINATION": 53.055,
    "RA_OF_ASC_NODE": 206.436,
    "ARG_OF_PERICENTER": 78.0867,
    "MEAN_ANOMALY": 282.029,
    "EPHEMERIS_TYPE": 0,
    "CLASSIFICATION_TYPE": "U",
    "NORAD_CAT_ID": 51974,
    "ELEMENT_SET_NO": 999,
    "REV_AT_EPOCH": 20293,
    "BSTAR": 5.4994e-05,
    "MEAN_MOTION_DOT": 5.38e-06,
    "MEAN_MOTION_DDOT": 0.0,
    "TLE_LINE1": "1 51974U 22025U   25314.39144800  .00000538  00000+0  54994-4 0  9991",
    "TLE_LINE2": "2 51974  53.0550 206.4360 0001502  78.0867 282.0290 15.06391356202939",
    "COMMENT": "Grouped by shell and plane from TLE"
  },
  {
    "OBJECT_NAME": "STARLINK-4091",
    "OBJECT_ID": "22062A",
    "EPOCH": "2025-11-11T01:56:42.446976",
    "MEAN_MOTION": 15.08838436,
    "ECCENTRICITY": 0.0001533,
    "INCLINATION": 53.2156,
    "RA_OF_ASC_NODE": 206.7692,
    "ARG_OF_PERICENTER": 85.8146,
    "MEAN_ANOMALY": 274.3021,
    "EPHEMERIS_TYPE": 0,
    "CLASSIFICATION_TYPE": "U",
    "NORAD_CAT_ID": 52830,
    "ELEMENT_SET_NO": 999,
    "REV_AT_EPOCH": 18787,
    "BSTAR": 6.3885e-05,
    "MEAN_MOTION_DOT": 7.29e-06,
    "MEAN_MOTION_DDOT": 0.0,
    "TLE_LINE1": "1 52830U 22062A   25315.08104684  .00000729  00000+0  63885-4 0  9998",
    "TLE_LINE2": "2 52830  53.2156 206.7692 0001533  85.8146 274.3021 15.08838436187874",
    "COMMENT": "Grouped by shell and plane from TLE"
  },
  {
    "OBJECT_NAME": "STARLINK-4089",
    "OBJECT_ID": "22062B",
    "EPOCH": "2025-11-11T01:46:04.245600",
    "MEAN_MOTION": 15.08847819,
    "ECCENTRICITY": 0.000144,
    "INCLINATION": 53.2151,
    "RA_OF_ASC_NODE": 206.6091,
    "ARG_OF_PERICENTER": 83.3614,
    "MEAN_ANOMALY": 276.7542,
    "EPHEMERIS_TYPE": 0,
    "CLASSIFICATION_TYPE": "U",
    "NORAD_CAT_ID": 52831,
    "ELEMENT_SET_NO": 999,
    "REV_AT_EPOCH": 18787,
    "BSTAR": 0.00032290000000000004,
    "MEAN_MOTION_DOT": 4.856e-05,
    "MEAN_MOTION_DDOT": 0.0,
    "TLE_LINE1": "1 52831U 22062B   25315.07366025  .00004856  00000+0  32290-3 0  9997",
    "TLE_LINE2": "2 52831  53.2151 206.6091 0001440  83.3614 276.7542 15.08847819187871",
    "COMMENT": "Grouped by shell and plane from TLE"
  },
  {
    "OBJECT_NAME": "STARLINK-4083",
    "OBJECT_ID": "22062C",
    "EPOCH": "2025-11-11T03:16:09.707808",
    "MEAN_MOTION": 15.0884322,
    "ECCENTRICITY": 0.0001551,
    "INCLINATION": 53.2161,
    "RA_OF_ASC_NODE": 206.328,
    "ARG_OF_PERICENTER": 74.1007,
    "MEAN_ANOMALY": 286.0156,
    "EPHEMERIS_TYPE": 0,
    "CLASSIFICATION_TYPE": "U",
    "NORAD_CAT_ID": 52832,
    "ELEMENT_SET_NO": 999,
    "REV_AT_EPOCH": 18788,
    "BSTAR": 0.0002519,
    "MEAN_MOTION_DOT": 3.724e-05,
    "MEAN_MOTION_DDOT": 0.0,
    "TLE_LINE1": "1 52832U 22062C   25315.13622347  .00003724  00000+0  25190-3 0  9991",
    "TLE_LINE2": "2 52832  53.2161 206.3280 0001551  74.1007 286.0156 15.08843220187885",
    "COMMENT": "Grouped by shell and plane from TLE"
  },
  {
    "OBJECT_NAME": "STARLINK-4086",
    "OBJECT_ID": "22062D",
    "EPOCH": "2025-11-11T00:00:05.263488",
    "MEAN_MOTION": 15.08843217,
    "ECCENTRICITY": 0.0001366,
    "INCLINATION": 53.2152,
    "RA_OF_ASC_NODE": 206.9408,
    "ARG_OF_PERICENTER": 86.851,
    "MEAN_ANOMALY": 273.2638,
    "EPHEMERIS_TYPE": 0,
    "CLASSIFICATION_TYPE": "U",
    "NORAD_CAT_ID": 52833,
    "ELEMENT_SET_NO": 999,
    "REV_AT_EPOCH": 18786,
    "BSTAR": 0.00028822,
    "MEAN_MOTION_DOT": 4.303e-05,
    "MEAN_MOTION_DDOT": 0.0,
    "TLE_LINE1": "1 52833U 22062D   25315.00006092  .00004303  00000+0  28822-3 0  9990",
    "TLE_LINE2": "2 52833  53.2152 206.9408 0001366  86.8510 273.2638 15.08843217187864",
    "COMMENT": "Grouped by shell and plane from TLE"
  },
  {
    "OBJECT_NAME": "STARLINK-4108",
    "OBJECT_ID": "22062E",
    "EPOCH": "2025-11-11T03:00:15.675552",
    "MEAN_MOTION": 15.08837499,
    "ECCENTRICITY": 0.000168,
    "INCLINATION": 53.2181,
    "RA_OF_ASC_NODE": 206.3781,
    "ARG_OF_PERICENTER": 69.8619,
    "MEAN_ANOMALY": 290.2554,
    "EPHEMERIS_TYPE": 0,
    "CLASSIFICATION_TYPE": "U",
    "NORAD_CAT_ID": 52834,
    "ELEMENT_SET_NO": 999,
    "REV_AT_EPOCH": 18788,
    "BSTAR": 0.0,
    "MEAN_MOTION_DOT": -6.6e-06,
    "MEAN_MOTION_DDOT": 0.0,
    "TLE_LINE1": "1 52834U 22062E   25315.12518143 -.00000660  00000+0 -23388-4 0  9996",
    "TLE_LINE2": "2 52834  53.2181 206.3781 0001680  69.8619 290.2554 15.08837499187888",
    "COMMENT": "Grouped by shell and plane from TLE"
  },
  {
    "OBJECT_NAME": "STARLINK-4080",
    "OBJECT_ID": "22062F",
    "EPOCH": "2025-11-11T02:54:57.176640",
    "MEAN_MOTION": 15.08842822,
    "ECCENTRICITY": 0.0001519,
    "INCLINATION": 53.2163,
    "RA_OF_ASC_NODE": 206.3941,
    "ARG_OF_PERICENTER": 94.8816,
    "MEAN_ANOMALY": 265.235,
    "EPHEMERIS_TYPE": 0,
    "CLASSIFICATION_TYPE": "U",
    "NORAD_CAT_ID": 52835,
    "ELEMENT_SET_NO": 999,
    "REV_AT_EPOCH": 18788,
    "BSTAR": 0.00012024,
    "MEAN_MOTION_DOT": 1.626e-05,
    "MEAN_MOTION_DDOT": 0.0,
    "TLE_LINE1": "1 52835U 22062F   25315.12149510  .00001626  00000+0  12024-3 0  9990",
    "TLE_LINE2": "2 52835  53.2163 206.3941 0001519  94.8816 265.2350 15.08842822187887",
    "COMMENT": "Grouped by shell and plane from TLE"
  },
  {
    "OBJECT_NAME": "STARLINK-4043",
    "OBJECT_ID": "22062G",
    "EPOCH": "2025-11-11T03:33:29.423808",
    "MEAN_MOTION": 15.08849383,
    "ECCENTRICITY": 0.0001054,
    "INCLINATION": 53.2148,
    "RA_OF_ASC_NODE": 206.5906,
    "ARG_OF_PERICENTER": 96.3253,
    "MEAN_ANOMALY": 263.786,
    "EPHEMERIS_TYPE": 0,
    "CLASSIFICATION_TYPE": "U",
    "NORAD_CAT_ID": 52836,
    "ELEMENT_SET_NO": 999,
    "REV_AT_EPOCH": 18788,
    "BSTAR": 0.0005628499999999999,
    "MEAN_MOTION_DOT": 8.684e-05,
    "MEAN_MOTION_DDOT": 0.0,
    "TLE_LINE1": "1 52836U 22062G   25315.14825722  .00008684  00000+0  56285-3 0  9997",
    "TLE_LINE2": "2 52836  53.2148 206.5906 0001054  96.3253 263.7860 15.08849383187888",
    "COMMENT": "Grouped by shell and plane from TLE"
  }
]